{
  "links" : {
    "next" : "https://api.nasa.gov/neo/rest/v1/neo/browse?page=40&size=20&api_key=jqAGvNAwUIBu4fl9FSOjdm3V4F7hIglRzI6pdX9d",
    "prev" : "https://api.nasa.gov/neo/rest/v1/neo/browse?page=38&size=20&api_key=jqAGvNAwUIBu4fl9FSOjdm3V4F7hIglRzI6pdX9d",
    "self" : "https://api.nasa.gov/neo/rest/v1/neo/browse?page=39&size=20&api_key=jqAGvNAwUIBu4fl9FSOjdm3V4F7hIglRzI6pdX9d"
  },
  "page" : {
    "size" : 20,
    "total_elements" : 20750,
    "total_pages" : 1038,
    "number" : 39
  },
  "near_earth_objects" : [ {
    "links" : {
      "self" : "https://api.nasa.gov/neo/rest/v1/neo/3781831?api_key=jqAGvNAwUIBu4fl9FSOjdm3V4F7hIglRzI6pdX9d"
    },
    "neo_reference_id" : "3781831",
    "name" : "(2017 RW17)",
    "designation" : "2017 RW17",
    "nasa_jpl_url" : "http://ssd.jpl.nasa.gov/sbdb.cgi?sstr=3781831",
    "absolute_magnitude_h" : 29.5,
    "estimated_diameter" : {
      "kilometers" : {
        "estimated_diameter_min" : 0.0033462237,
        "estimated_diameter_max" : 0.0074823838
      },
      "meters" : {
        "estimated_diameter_min" : 3.3462237445,
        "estimated_diameter_max" : 7.4823837607
      },
      "miles" : {
        "estimated_diameter_min" : 0.0020792464,
        "estimated_diameter_max" : 0.0046493363
      },
      "feet" : {
        "estimated_diameter_min" : 10.9784247101,
        "estimated_diameter_max" : 24.5485039376
      }
    },
    "is_potentially_hazardous_asteroid" : false,
    "close_approach_data" : [ {
      "close_approach_date" : "2017-09-16",
      "epoch_date_close_approach" : 1505545200000,
      "relative_velocity" : {
        "kilometers_per_second" : "13.7675220394",
        "kilometers_per_hour" : "49563.0793419444",
        "miles_per_hour" : "30796.5700499987"
      },
      "miss_distance" : {
        "astronomical" : "0.0027705534",
        "lunar" : "1.0777451992",
        "kilometers" : "414468.875",
        "miles" : "257539.03125"
      },
      "orbiting_body" : "Earth"
    }, {
      "close_approach_date" : "2017-09-16",
      "epoch_date_close_approach" : 1505545200000,
      "relative_velocity" : {
        "kilometers_per_second" : "13.3318443059",
        "kilometers_per_hour" : "47994.639501213",
        "miles_per_hour" : "29822.0025278509"
      },
      "miss_distance" : {
        "astronomical" : "0.0017492588",
        "lunar" : "0.6804617047",
        "kilometers" : "261685.40625",
        "miles" : "162603.765625"
      },
      "orbiting_body" : "Moon"
    } ],
    "orbital_data" : {
      "orbit_id" : "1",
      "orbit_determination_date" : "2017-09-27 06:51:21",
      "first_observation_date" : "2017-09-14",
      "last_observation_date" : "2017-09-15",
      "data_arc_in_days" : 1,
      "observations_used" : 6,
      "orbit_uncertainty" : "9",
      "minimum_orbit_intersection" : ".000206545",
      "jupiter_tisserand_invariant" : "3.590",
      "epoch_osculation" : "2458010.5",
      "eccentricity" : ".5931568565758556",
      "semi_major_axis" : "2.00966882558809",
      "inclination" : ".9819544003450279",
      "ascending_node_longitude" : "173.32739507",
      "orbital_period" : "1040.60323194724",
      "perihelion_distance" : ".8176199822437672",
      "perihelion_argument" : "240.7615841518788",
      "aphelion_distance" : "3.201717668932412",
      "perihelion_time" : "2458054.554884883012",
      "mean_anomaly" : "344.7590723620889",
      "mean_motion" : ".3459531826807284",
      "equinox" : "J2000",
      "orbit_class" : {
        "orbit_class_type" : "APO",
        "orbit_class_range" : "a (semi-major axis) > 1.0 AU; q (perihelion) < 1.017 AU",
        "orbit_class_description" : "Near-Earth asteroid orbits which cross the Earth’s orbit similar to that of 1862 Apollo"
      }
    },
    "is_sentry_object" : false
  }, {
    "links" : {
      "self" : "https://api.nasa.gov/neo/rest/v1/neo/3781973?api_key=jqAGvNAwUIBu4fl9FSOjdm3V4F7hIglRzI6pdX9d"
    },
    "neo_reference_id" : "3781973",
    "name" : "(2017 SK19)",
    "designation" : "2017 SK19",
    "nasa_jpl_url" : "http://ssd.jpl.nasa.gov/sbdb.cgi?sstr=3781973",
    "absolute_magnitude_h" : 25.3,
    "estimated_diameter" : {
      "kilometers" : {
        "estimated_diameter_min" : 0.0231502122,
        "estimated_diameter_max" : 0.0517654482
      },
      "meters" : {
        "estimated_diameter_min" : 23.150212221,
        "estimated_diameter_max" : 51.7654482198
      },
      "miles" : {
        "estimated_diameter_min" : 0.0143848705,
        "estimated_diameter_max" : 0.0321655483
      },
      "feet" : {
        "estimated_diameter_min" : 75.9521422633,
        "estimated_diameter_max" : 169.8341531374
      }
    },
    "is_potentially_hazardous_asteroid" : false,
    "close_approach_data" : [ {
      "close_approach_date" : "2017-09-09",
      "epoch_date_close_approach" : 1504940400000,
      "relative_velocity" : {
        "kilometers_per_second" : "13.4274763281",
        "kilometers_per_hour" : "48338.9147811863",
        "miles_per_hour" : "30035.9217983432"
      },
      "miss_distance" : {
        "astronomical" : "0.0297524521",
        "lunar" : "11.5737037659",
        "kilometers" : "4450903.5",
        "miles" : "2765663.25"
      },
      "orbiting_body" : "Earth"
    } ],
    "orbital_data" : {
      "orbit_id" : "1",
      "orbit_determination_date" : "2017-09-30 10:42:08",
      "first_observation_date" : "2017-09-24",
      "last_observation_date" : "2017-09-30",
      "data_arc_in_days" : 6,
      "observations_used" : 13,
      "orbit_uncertainty" : "9",
      "minimum_orbit_intersection" : ".00711949",
      "jupiter_tisserand_invariant" : "3.571",
      "epoch_osculation" : "2458021.5",
      "eccentricity" : ".5709624603671516",
      "semi_major_axis" : "2.04785809489601",
      "inclination" : ".5929696549468053",
      "ascending_node_longitude" : "285.7695758012898",
      "orbital_period" : "1070.405213320181",
      "perihelion_distance" : ".8786079985513964",
      "perihelion_argument" : "8.262425786466913",
      "aphelion_distance" : "3.217108191240624",
      "perihelion_time" : "2457968.231231258921",
      "mean_anomaly" : "17.91541792598899",
      "mean_motion" : ".3363212319223974",
      "equinox" : "J2000",
      "orbit_class" : {
        "orbit_class_type" : "APO",
        "orbit_class_range" : "a (semi-major axis) > 1.0 AU; q (perihelion) < 1.017 AU",
        "orbit_class_description" : "Near-Earth asteroid orbits which cross the Earth’s orbit similar to that of 1862 Apollo"
      }
    },
    "is_sentry_object" : false
  }, {
    "links" : {
      "self" : "https://api.nasa.gov/neo/rest/v1/neo/3781967?api_key=jqAGvNAwUIBu4fl9FSOjdm3V4F7hIglRzI6pdX9d"
    },
    "neo_reference_id" : "3781967",
    "name" : "(2017 SO19)",
    "designation" : "2017 SO19",
    "nasa_jpl_url" : "http://ssd.jpl.nasa.gov/sbdb.cgi?sstr=3781967",
    "absolute_magnitude_h" : 24.5,
    "estimated_diameter" : {
      "kilometers" : {
        "estimated_diameter_min" : 0.0334622374,
        "estimated_diameter_max" : 0.0748238376
      },
      "meters" : {
        "estimated_diameter_min" : 33.4622374455,
        "estimated_diameter_max" : 74.8238376074
      },
      "miles" : {
        "estimated_diameter_min" : 0.0207924639,
        "estimated_diameter_max" : 0.0464933628
      },
      "feet" : {
        "estimated_diameter_min" : 109.7842471007,
        "estimated_diameter_max" : 245.4850393757
      }
    },
    "is_potentially_hazardous_asteroid" : false,
    "close_approach_data" : [ {
      "close_approach_date" : "2017-09-18",
      "epoch_date_close_approach" : 1505718000000,
      "relative_velocity" : {
        "kilometers_per_second" : "13.3727449817",
        "kilometers_per_hour" : "48141.8819342809",
        "miles_per_hour" : "29913.4932496647"
      },
      "miss_distance" : {
        "astronomical" : "0.1136351716",
        "lunar" : "44.204082489",
        "kilometers" : "16999580",
        "miles" : "10563050"
      },
      "orbiting_body" : "Earth"
    } ],
    "orbital_data" : {
      "orbit_id" : "1",
      "orbit_determination_date" : "2017-09-30 10:42:08",
      "first_observation_date" : "2017-09-25",
      "last_observation_date" : "2017-09-30",
      "data_arc_in_days" : 5,
      "observations_used" : 9,
      "orbit_uncertainty" : "9",
      "minimum_orbit_intersection" : ".111283",
      "jupiter_tisserand_invariant" : "4.042",
      "epoch_osculation" : "2458022.5",
      "eccentricity" : ".3602152784687849",
      "semi_major_axis" : "1.701492705336538",
      "inclination" : "22.77437765590918",
      "ascending_node_longitude" : "359.4796523022831",
      "orbital_period" : "810.6689967315988",
      "perihelion_distance" : "1.088589036671131",
      "perihelion_argument" : "332.7789102156791",
      "aphelion_distance" : "2.314396374001946",
      "perihelion_time" : "2457993.261495655499",
      "mean_anomaly" : "12.98416691209091",
      "mean_motion" : ".444077670974743",
      "equinox" : "J2000",
      "orbit_class" : {
        "orbit_class_type" : "AMO",
        "orbit_class_range" : "1.017 AU < q (perihelion) < 1.3 AU",
        "orbit_class_description" : "Near-Earth asteroid orbits similar to that of 1221 Amor"
      }
    },
    "is_sentry_object" : false
  } ]
}